ONEWEB-0298             
1 49087U 21075N   24040.88595524 -.00000021  00000+0 -87160-4 0  9999
2 49087  87.9244 176.5787 0001405 111.6212 248.5069 13.17651868121586
ONEWEB-0299             
1 49088U 21075P   24040.81160422  .00000032  00000+0  49729-4 0  9997
2 49088  87.9239 176.5685 0001331 113.7365 246.3906 13.17651037121537
ONEWEB-0300             
1 49089U 21075Q   24040.82594405 -.00000382  00000+0 -10982-2 0  9998
2 49089  87.9039 161.4685 0001789 113.8527 246.2789 13.12442881123605
ONEWEB-0301             
1 49090U 21075R   24040.88630221 -.00000254  00000+0 -74119-3 0  9994
2 49090  87.9037 161.4587 0001957 106.8064 253.3279 13.12441466122971
ONEWEB-0302             
1 49091U 21075S   24040.41617177  .00000066  00000+0  14864-3 0  9999
2 49091  87.9038 161.5489 0001325 107.5931 252.5342 13.12443232121902
ONEWEB-0304             
1 49092U 21075T   24040.40662612  .00000041  00000+0  72180-4 0  9992
2 49092  87.9245 176.6593 0001207 106.0021 254.1243 13.17650409120480
ONEWEB-0305             
1 49093U 21075U   24040.39869970 -.00000107  00000+0 -30893-3 0  9996
2 49093  87.9241 176.6510 0001184 120.2736 239.8512 13.17648191120519
ONEWEB-0308             
1 49094U 21075V   24040.86724842  .00000449  00000+0  12139-2 0  9996
2 49094  87.9039 161.4607 0001692 106.4654 253.6661 13.12441505122979
